ONEWEB-0697             
1 61603U 24188K   26158.38241088  .00000582  00000+0  16072-2 0  9997
2 61603  87.8899  23.0187 0001324 108.9365 251.1906 13.11418548 83168
ONEWEB-0698             
1 61604U 24188L   26158.36035404 -.00000070  00000+0 -23318-3 0  9995
2 61604  87.8895  23.0375 0000593  83.9433 276.1763 13.11420614 83186
ONEWEB-0699             
1 61605U 24188M   26158.36539534  .00000027  00000+0  41089-4 0  9995
2 61605  87.8833  38.2218 0001340  97.7578 262.3701 13.10369961 82024
ONEWEB-0700             
1 61606U 24188N   26158.36705262 -.00000045  00000+0 -16392-3 0  9999
2 61606  87.8857  38.1290 0001671 103.8685 256.2629 13.10369876 82010
ONEWEB-0701             
1 61607U 24188P   26158.38363891 -.00000612  00000+0 -17884-2 0  9996
2 61607  87.8843  38.2173 0001260 105.9023 254.2244 13.10371798 82028
ONEWEB-0702             
1 61608U 24188Q   26158.32984800 -.00000192  00000+0 -57823-3 0  9991
2 61608  87.8912  22.9472 0001606 119.1193 241.0096 13.11416574 83198
ONEWEB-0704             
1 61609U 24188R   26158.37203031 -.00000295  00000+0 -88241-3 0  9999
2 61609  87.8851  38.2087 0001821 118.1046 242.0265 13.10370299 82008
ONEWEB-0705             
1 61610U 24188S   26158.37706167 -.00007096  00000+0 -20397-1 0  9991
2 61610  87.8845  38.2133 0002562 111.9080 248.2320 13.10317031 74171
ONEWEB-0706             
1 61611U 24188T   26158.36207909  .00000252  00000+0  68437-3 0  9995
2 61611  87.8844  38.2217 0001844 100.8117 259.3218 13.10369720 82095
ONEWEB-0707             
1 61612U 24188U   26158.36871081 -.00000057  00000+0 -20016-3 0  9990
2 61612  87.8845  38.2141 0001728 101.2958 258.8364 13.10369938 82033
ONEWEB-0708             
1 61613U 24188V   26158.38695958 -.00000663  00000+0 -19363-2 0  9995
2 61613  87.8842  38.2301 0002308  88.1971 271.9421 13.10372479 82014
