OBJECT_NAME,OBJECT_ID,EPOCH,MEAN_MOTION,ECCENTRICITY,INCLINATION,RA_OF_ASC_NODE,ARG_OF_PERICENTER,MEAN_ANOMALY,EPHEMERIS_TYPE,CLASSIFICATION_TYPE,NORAD_CAT_ID,ELEMENT_SET_NO,REV_AT_EPOCH,BSTAR,MEAN_MOTION_DOT,MEAN_MOTION_DDOT
ONEWEB-0697,2024-188K,2026-06-07T09:10:40.300032,13.11418548,.0001324,87.8899,23.0187,108.9365,251.1906,0,U,61603,999,8316,.16072E-2,.582E-5,0
ONEWEB-0698,2024-188L,2026-06-07T08:38:54.589056,13.11420614,.0000593,87.8895,23.0375,83.9433,276.1763,0,U,61604,999,8318,-.23318E-3,-.7E-6,0
ONEWEB-0699,2024-188M,2026-06-07T08:46:10.157376,13.10369961,.000134,87.8833,38.2218,97.7578,262.3701,0,U,61605,999,8202,.41089E-4,.27E-6,0
ONEWEB-0700,2024-188N,2026-06-07T08:48:33.346368,13.10369876,.0001671,87.8857,38.1290,103.8685,256.2629,0,U,61606,999,8201,-.16392E-3,-.45E-6,0
ONEWEB-0701,2024-188P,2026-06-07T09:12:26.401824,13.10371798,.000126,87.8843,38.2173,105.9023,254.2244,0,U,61607,999,8202,-.17884E-2,-.612E-5,0
ONEWEB-0702,2024-188Q,2026-06-07T07:54:58.867200,13.11416574,.0001606,87.8912,22.9472,119.1193,241.0096,0,U,61608,999,8319,-.57823E-3,-.192E-5,0
ONEWEB-0704,2024-188R,2026-06-07T08:55:43.418784,13.10370299,.0001821,87.8851,38.2087,118.1046,242.0265,0,U,61609,999,8200,-.88241E-3,-.295E-5,0
ONEWEB-0705,2024-188S,2026-06-07T09:02:58.128288,13.10317031,.0002562,87.8845,38.2133,111.9080,248.2320,0,U,61610,999,7417,-.20397E-1,-.7096E-4,0
ONEWEB-0706,2024-188T,2026-06-07T08:41:23.633376,13.10369720,.0001844,87.8844,38.2217,100.8117,259.3218,0,U,61611,999,8209,.68437E-3,.252E-5,0
ONEWEB-0707,2024-188U,2026-06-07T08:50:56.613984,13.10369938,.0001728,87.8845,38.2141,101.2958,258.8364,0,U,61612,999,8203,-.20016E-3,-.57E-6,0
ONEWEB-0708,2024-188V,2026-06-07T09:17:13.307712,13.10372479,.0002308,87.8842,38.2301,88.1971,271.9421,0,U,61613,999,8201,-.19363E-2,-.663E-5,0
